ONEWEB-0306             
1 49188U 21083C   23249.22012742  .00000096  00000+0  21008-3 0  9992
2 49188  87.9228 177.3148 0001699  81.4196 278.7129 13.18683818 96258
ONEWEB-0307             
1 49189U 21083D   23248.25514360 -.00000267  00000+0 -76628-3 0  9998
2 49189  87.9089 162.3490 0001988  75.1527 284.9822 13.13470153 97562
ONEWEB-0320             
1 49190U 21083E   23248.31595153  .00000045  00000+0  82081-4 0  9999
2 49190  87.9230 177.5166 0002034  75.4863 284.6495 13.18687405 96094
ONEWEB-0321             
1 49191U 21083F   23248.90896255  .00000977  00000+0  23721-2 0  9990
2 49191  87.9170 116.5966 0001873  95.4655 264.6692 13.20764088102811
ONEWEB-0322             
1 49192U 21083G   23249.16502629 -.00000194  00000+0 -56533-3 0  9990
2 49192  87.9086 162.1594 0002584  76.4151 283.7266 13.13466467 97670
ONEWEB-0324             
1 49193U 21083H   23249.21169131  .00000095  00000+0  20723-3 0  9994
2 49193  87.9228 177.3195 0001641  66.8242 293.3063 13.18688442 96238
ONEWEB-0325             
1 49194U 21083J   23249.21592964  .00000140  00000+0  32354-3 0  9993
2 49194  87.9418 177.2163 0002010  77.6957 282.4400 13.18682518 96241
ONEWEB-0326             
1 49195U 21083K   23249.23067771  .00000137  00000+0  31432-3 0  9991
2 49195  87.9230 177.3055 0001468  61.3512 298.7768 13.18687503 96233
